#dP2024  1 12  6  0  0.00000000      96 __u+U IGS20 EXT  IAC
## 2296 453600.00000000   900.00000000 60321 0.2500000000000
+  117   C06C07C08C09C10C11C12C13C14C19C20C21C22C23C24C25C26
+        C27C28C29C30C32C33C34C35C36C37C38C39C40C41C42C43C44
+        C45C46E02E03E04E05E07E08E09E10E11E12E13E14E15E18E19
+        E21E24E25E26E27E30E31E33E34E36G01G02G03G04G05G06G07
+        G08G09G10G11G12G13G14G15G16G17G18G19G20G21G22G23G25
+        G26G28G29G30G31G32J02J03J04R01R02R03R04R05R07R08R09
+        R11R12R13R14R15R16R17R18R19R20R21R22R24R25R26  0  0
++        10 10  9  9 10  7  8  9 12  9  8  8  8  8  8  7  7
++         9  8 10  9  7  7  9  8  8  7 10 11  8  8  7  8  9
++         8 10  7  7  7  8  7  8  7  7  7  7  7  7  7  8  7
++         6  7  7  8  7  7  7  7  7  7  7  7  8  7  7  7  9
++         8  7  7  7  8  7  7  7  8  8  8  7  7  7  7  6  8
++         8  7  7  8  7  7  9  9  9  9  8  8  8  8  8  8  7
++         8  8  8  7  8  7  8  7  8  8  8  7  8  7  9  0  0
%c M  cc GPS ccc cccc cccc cccc cccc ccccc ccccc ccccc ccccc
%c cc cc ccc ccc cccc cccc cccc cccc ccccc ccccc ccccc ccccc
%f  0.0000000  0.000000000  0.00000000000  0.000000000000000
%f  0.0000000  0.000000000  0.00000000000  0.000000000000000
%i    0    0    0    0      0      0      0      0         0
%i    0    0    0    0      0      0      0      0         0
/* IAC                                ULTRA-RAPID PREDICTION
/* S/V CLOCKS ARE ALIGNED TO GNSS TIME                      
/* G:C1WC2W R:C1PC2P E:C1XC5X C:C2IC6I J:C1CC2S             
/* PCV:IGS20_2290 OL/AL:FES2004  NONE     YN ORB:CoN CLK:CoN
*  2024 01 12 23 45  0.00000000
PC06  -2261.925178  34357.141674  24563.970646     44.283482
PC07 -12090.737114  27083.209470 -29917.648791   -627.949169
PC08 -16034.235822  37656.727941   9604.817993    116.697037
PC09   4828.041589  38963.253224  16594.383657   -344.796791
PC10  -5163.182142  27513.897537 -31261.870701    128.341432
PC11  11787.201499  22804.753978 -10859.442174    355.097662
PC12  -5430.868921  15731.239581 -22356.163657    798.091313
PC13  -9953.942273  37760.073576  15724.621280    406.789931
PC14   4540.501884  15016.863021  23092.295258    -45.904758
PC19 -14805.930396 -10650.986148 -21101.219434   -938.716614
PC20   4426.957567 -16632.194693 -21950.015402    -59.811290
PC21 -22791.183864  13025.610896   9512.100327   -964.399694
PC22 -26664.831477   1753.919828  -8079.046601   -150.008442
PC23  16317.516637   2036.418025 -22553.460768   -791.055247
PC24  -5550.671321  27269.411938  -1883.484283    783.947509
PC25   8431.496638  19955.269004 -17594.339850    300.443012
PC26 -14837.782522  18872.047353  14175.366192   -233.852988
PC27  13267.324674  -9220.758749  22737.853134    255.890250
PC28  22134.081442   6513.593427  15706.570070    194.098169
PC29 -19115.931227 -20144.148447   2722.378540    227.371014
PC30  -3331.076445 -20652.523162  18453.694603    -14.809866
PC32  22748.239605 -13144.946215  -9380.963960   -553.009216
PC33  14748.852145  10665.729416  21153.924835   -942.973790
PC34   4788.363809  21204.433502 -17520.574442    345.851518
PC35 -22389.368437  -5636.445274 -15655.468371    458.686003
PC36  -7528.330266 -20681.251440  17176.763817    -55.054104
PC37  15450.654111 -18104.764545 -14591.083481   -931.769487
PC38 -19665.227765  37190.540428   1010.503106    130.094515
PC39  -6644.662955  29060.772284  29949.359967     -6.604584
PC40 -18679.058957  20478.034951 -31844.726983    -51.821787
PC41  26441.444429  -1239.947851   8879.480901   -879.267889
PC42  -6193.953039  16858.796314  21407.749583   -466.621513
PC43  18566.457194  20539.253907  -3599.850507     56.168708
PC44 -13121.610408   9720.848179 -22637.147707    351.973200
PC45 -16265.655500  -1657.988282  22601.060378    -62.602442
PC46   4995.952456 -27333.811515   2809.608142   -115.150080
PE02  -9901.868617  23239.725532 -15420.027073     94.549254
PE03     30.862968  17502.241195  23865.311184    -86.605670
PE04 -20428.470024 -16473.597833 -13683.727837   -302.233367
PE05 -20125.656961   8340.800482  20038.622150   4709.745039
PE07  28682.882099   6070.245078  -4061.044855    -98.079810
PE08  19933.663030  16590.903507  14260.276333   -207.059769
PE09 -28684.682622  -6162.754735   3956.034029   -297.355882
PE10 -15768.247571 -17356.832624 -18062.978684   -593.680996
PE11 -16913.918388  -6136.895512 -23502.325649   3280.397040
PE12 -12390.256977 -24733.979508 -10499.127397   -860.116613
PE13  16878.264061   6959.360949  23311.475139    -19.887978
PE14 -30635.435742  -2000.892078 -10348.354363      8.818813
PE15  12155.218526  25061.855444  10041.173347    -79.853973
PE18  22142.122194   1557.059619   7757.551153    204.010502
PE19   2642.485360 -16748.014176 -24258.095310   -824.824306
PE21  22670.716559 -18961.937310  -1728.875278   -573.586717
PE24 -22648.752878   2876.227265  18803.211068   -538.740148
PE25 -22804.750046  18744.099691   2093.531276     -0.603021
PE26  11502.769009 -15596.308756  22385.442098    337.545391
PE27  22805.626056  -3391.961289 -18576.599018   -247.864445
PE30   9260.721032  14266.881035 -24240.046840   -819.615253
PE31  -9483.455377 -14015.493541  24285.895711    -13.643855
PE33     19.741339 -28050.833089   9466.440510      5.849080
PE34    423.900621  28217.094520  -8921.658201    -88.654460
PE36 -11655.744786  14933.918495 -22737.735521   -170.989996
PG01  13569.033539  -5189.594085  21868.733693    165.945718
PG02  16221.758297   2174.669823  21467.599564   -501.763615
PG03  21699.656740  -9136.931254  12039.123209    122.013901
PG04  23996.191051   -160.148691 -11517.342509    264.528265
PG05 -17841.606147  -1235.958734 -19843.483874   -157.736505
PG06  -6137.803806 -25766.630282   -819.796517    446.764657
PG07   7304.100312 -19300.890180 -15965.992049    -35.827427
PG08  26148.867313   4953.210533   2983.094510   -161.785136
PG09  15244.816833  -9925.191108 -19458.945519     56.930950
PG10  -5782.276054  20195.892790  16250.822871    -69.091834
PG11 -11858.572084 -20767.604541 -11582.208970   -537.632528
PG12 -22400.313721   7660.212277  11684.890689   -467.268364
PG13 -22301.989338 -13949.611654  -4644.972689    615.256966
PG14   9553.022149 -20964.350067  13078.081368    297.044353
PG15 -26433.357180  -2357.559723   2186.682128    116.624119
PG16  13519.908626   8524.137924 -21605.216474   -385.354700
PG17   1513.242319 -15459.606401  21959.477988    720.012670
PG18  -6519.558310  20393.630322 -15582.001330   -530.608447
PG19  -8963.337846 -17265.031853  18055.091944    425.717816
PG20  -8757.997025 -13402.034942 -21157.916581    391.833935
PG21  16999.480048   7809.723849  19697.743851    138.592433
PG22   3236.517485 -19050.229296  18781.517164     49.290581
PG23 -15788.271339  20565.475583   5304.525309    134.196896
PG25 -19945.440741  17150.553325   2009.603972    485.043465
PG26   5750.244643  16096.814993 -20389.890444    200.876264
PG28   5372.426660  25927.712740   2084.311627    -96.979754
PG29 -16916.588342   7377.077960 -19185.024263   -608.766338
PG30     47.583505 -25268.669334  -7602.805778   -446.169072
PG31  10108.919587  23269.437055  -7320.290285   -227.254485
PG32   3506.460739  16276.476643  20930.937881   -604.595546
PJ02 -36309.454841  21231.653590   1124.891067     -1.130939
PJ03 -18914.459679  25107.832808 -23401.977166     -0.153437
PJ04 -26741.769257  31010.399932  16445.726656     76.700194
PR01   7951.518461   9689.525830  22216.834201     74.443388
PR02  22595.195919   3495.216431  11429.893152    -22.386330
PR03  24344.910835  -4990.258598  -5852.817469     92.622268
PR04  12780.984233 -10153.369738 -19579.137593    219.112685
PR05  -5623.674264 -10099.997849 -22722.749531    125.270168
PR07 -23950.780412   5396.541282   6857.492174     73.464672
PR08 -12384.024338  10426.043598  19758.989237    -73.982884
PR09 -10206.349592  -4984.977082  22850.765987    164.049634
PR11 -11451.017245  22648.566309   2646.270055   -226.290293
PR12   -870.873867  20110.216719 -15639.885723     35.547058
PR13   8722.511000   7435.095851 -22808.664605    -43.228080
PR14  14514.456186 -12409.702548 -16898.842743     25.933651
PR15  11042.086138 -22964.691500  -1137.871384     83.154774
PR16   1019.905206 -20228.107287  15487.959511     22.408485
PR17  12289.188472   -228.931748  22359.575672     51.836781
PR18   1474.107328 -14565.951709  20894.393791    121.819085
PR19  -8535.657746 -21781.218482  10174.905957   -261.822232
PR20 -16168.812756 -16514.279932 -10730.502191   -106.650842
PR21 -12033.314867    436.942895 -22483.796432    -68.455837
PR22  -1374.482705  15519.418266 -20171.552992    102.874268
PR24  17053.369048  15322.301564  11194.862916    -39.644167
PR25 -12518.418626    -94.562748 -22218.041532     33.026855
PR26 -13186.770304  10345.555627  19256.611136   -203.810334
EOF
